NORAD_CAT_ID,OBJECT_NAME,OBJECT_TYPE,EPOCH,MEAN_MOTION,ECCENTRICITY,INCLINATION,RA_OF_ASC_NODE,ARG_OF_PERICENTER,MEAN_ANOMALY,BSTAR,MEAN_MOTION_DOT,MEAN_MOTION_DDOT,TLE_LINE0,TLE_LINE1,TLE_LINE2,SEMIMAJOR_AXIS,PERIOD,APOGEE,PERIGEE,DECAYED
52551.0,STARLINK-3969,PAYLOAD,2023-11-28 19:55:52,15.08842347,0.0001652,53.2177,263.4791,106.8947,253.2227,0.00017319,2.47e-05,0.0,0 STARLINK-3969,1 52551U 22051U   23332.83047069  .00002470  00000-0  17319-3 0  9995,2 52551  53.2177 263.4791 0001652 106.8947 253.2227 15.08842347 85936,6917.873,95.437,540.881,538.595,0.0
52551.0,STARLINK-3969,PAYLOAD,2023-11-29 05:28:11,15.08846489,0.0001734,53.2178,261.6941,105.9512,254.1672,0.00018779,2.702e-05,0.0,0 STARLINK-3969,1 52551U 22051U   23333.22790776  .00002702  00000-0  18779-3 0  9998,2 52551  53.2178 261.6941 0001734 105.9512 254.1672 15.08846489 85927,6917.861,95.437,540.925,538.526,0.0
52551.0,STARLINK-3969,PAYLOAD,2023-11-30 00:32:50,15.08822986,0.0001972,53.2179,258.1303,94.1457,265.9761,-0.00038685,-6.437e-05,0.0,0 STARLINK-3969,1 52551U 22051U   23334.02280568 -.00006437  00000-0 -38685-3 0  9999,2 52551  53.2179 258.1303 0001972  94.1457 265.9761 15.08822986 86119,6917.932,95.439,541.162,538.433,0.0
52551.0,STARLINK-3969,PAYLOAD,2023-12-01 05:09:46,15.0884814,0.0002403,53.2175,252.7728,119.9423,240.1808,0.00024278,3.579e-05,0.0,0 STARLINK-3969,1 52551U 22051U   23335.21511613  .00003579  00000-0  24278-3 0  9994,2 52551  53.2175 252.7728 0002403 119.9423 240.1808 15.08848140 86291,6917.856,95.437,541.383,538.058,0.0
52551.0,STARLINK-3969,PAYLOAD,2023-12-01 22:39:00,15.08843251,0.0002185,53.2168,249.5017,116.0398,244.0819,0.00073084,0.00011363,0.0,0 STARLINK-3969,1 52551U 22051U   23335.94375816  .00011363  00000-0  73084-3 0  9996,2 52551  53.2168 249.5017 0002185 116.0398 244.0819 15.08843251 86332,6917.87,95.437,541.247,538.224,0.0
52551.0,STARLINK-3969,PAYLOAD,2023-12-02 00:14:22,15.08872521,0.0001771,53.2173,249.2099,108.3649,251.7536,0.00051198,7.877e-05,0.0,0 STARLINK-3969,1 52551U 22051U   23336.00998339  .00007877  00000-0  51198-3 0  9992,2 52551  53.2173 249.2099 0001771 108.3649 251.7536 15.08872521 86410,6917.781,95.435,540.871,538.421,0.0
52551.0,STARLINK-3969,PAYLOAD,2023-12-02 01:49:45,15.08879971,0.0001685,53.217,248.9109,112.21,247.9071,0.00062594,9.699e-05,0.0,0 STARLINK-3969,1 52551U 22051U   23336.07621903  .00009699  00000-0  62594-3 0  9995,2 52551  53.2170 248.9109 0001685 112.2100 247.9071 15.08879971 86355,6917.758,95.435,540.789,538.458,0.0
52551.0,STARLINK-3969,PAYLOAD,2023-12-02 22:29:47,15.08834044,0.0001819,53.2171,245.0419,111.1572,248.9615,-0.00027086,-4.596e-05,0.0,0 STARLINK-3969,1 52551U 22051U   23336.93735992 -.00004596  00000-0 -27086-3 0  9994,2 52551  53.2171 245.0419 0001819 111.1572 248.9615 15.08834044 86489,6917.899,95.438,541.022,538.505,0.0
52551.0,STARLINK-3969,PAYLOAD,2023-12-03 01:40:34,15.08830627,0.0001891,53.2174,244.4475,106.4892,253.6308,-0.00028979,-4.896e-05,0.0,0 STARLINK-3969,1 52551U 22051U   23337.06984264 -.00004896  00000-0 -28979-3 0  9992,2 52551  53.2174 244.4475 0001891 106.4892 253.6308 15.08830627 86574,6917.909,95.438,541.082,538.466,0.0
52551.0,STARLINK-3969,PAYLOAD,2023-12-04 03:06:43,15.0885345,0.0001898,53.216,239.6937,121.0451,239.0728,-2.1958e-05,-6.38e-06,0.0,0 STARLINK-3969,1 52551U 22051U   23338.12967418 -.00000638  00000-0 -21958-4 0  9993,2 52551  53.2160 239.6937 0001898 121.0451 239.0728 15.08853450 86730,6917.839,95.437,541.017,538.391,0.0
52551.0,STARLINK-3969,PAYLOAD,2023-12-04 20:35:59,15.08839635,0.0001762,53.2159,236.4223,116.2878,243.8296,0.00031661,4.754e-05,0.0,0 STARLINK-3969,1 52551U 22051U   23338.85832355  .00004754  00000-0  31661-3 0  9996,2 52551  53.2159 236.4223 0001762 116.2878 243.8296 15.08839635 86776,6917.882,95.438,540.965,538.528,0.0
52551.0,STARLINK-3969,PAYLOAD,2023-12-04 23:46:45,15.08846588,0.0001927,53.2157,235.8259,125.7176,234.3996,0.00039858,6.062e-05,0.0,0 STARLINK-3969,1 52551U 22051U   23338.99079976  .00006062  00000-0  39858-3 0  9993,2 52551  53.2157 235.8259 0001927 125.7176 234.3996 15.08846588 86862,6917.86,95.437,541.058,538.392,0.0
52551.0,STARLINK-3969,PAYLOAD,2023-12-05 17:15:59,15.08841694,0.00022,53.2142,232.5635,67.5629,292.5596,0.00025607,3.79e-05,0.0,0 STARLINK-3969,1 52551U 22051U   23339.71944331  .00003790  00000-0  25607-3 0  9992,2 52551  53.2142 232.5635 0002200  67.5629 292.5596 15.08841694 86976,6917.875,95.437,541.262,538.218,0.0
52551.0,STARLINK-3969,PAYLOAD,2023-12-06 02:48:18,15.0884765,0.0001766,53.217,230.771,114.7865,245.3311,6.1541e-05,6.92e-06,0.0,0 STARLINK-3969,1 52551U 22051U   23340.11687739  .00000692  00000-0  61541-4 0  9990,2 52551  53.2170 230.7710 0001766 114.7865 245.3311 15.08847650 86962,6917.857,95.437,540.944,538.5,0.0
52551.0,STARLINK-3969,PAYLOAD,2023-12-07 16:57:34,15.08835449,0.0001542,53.2174,223.637,99.2722,260.8445,1.3493e-06,-2.67e-06,0.0,0 STARLINK-3969,1 52551U 22051U   23341.70664652 -.00000267  00000-0  13493-5 0  9998,2 52551  53.2174 223.6370 0001542  99.2722 260.8445 15.08835449 87278,6917.894,95.438,540.826,538.693,0.0
52551.0,STARLINK-3969,PAYLOAD,2023-12-09 00:45:16,15.08841837,0.0001674,53.2162,217.6896,98.5565,261.5617,4.6626e-05,4.54e-06,0.0,0 STARLINK-3969,1 52551U 22051U   23343.03144239  .00000454  00000-0  46626-4 0  9990,2 52551  53.2162 217.6896 0001674  98.5565 261.5617 15.08841837 87473,6917.875,95.437,540.898,538.582,0.0
52551.0,STARLINK-3969,PAYLOAD,2023-12-10 00:36:03,15.0883938,0.0001644,53.2148,213.2272,96.7565,263.3614,1.3766e-05,-6.9e-07,0.0,0 STARLINK-3969,1 52551U 22051U   23344.02504416 -.00000069  00000-0  13766-4 0  9999,2 52551  53.2148 213.2272 0001644  96.7565 263.3614 15.08839380 87550,6917.882,95.438,540.885,538.61,0.0
52551.0,STARLINK-3969,PAYLOAD,2023-12-10 19:40:43,15.08822744,0.0001498,53.2146,209.6586,102.8485,257.2675,-9.5887e-05,-1.813e-05,0.0,0 STARLINK-3969,1 52551U 22051U   23344.81994409 -.00001813  00000-0 -95887-4 0  9994,2 52551  53.2146 209.6586 0001498 102.8485 257.2675 15.08822744 87748,6917.933,95.439,540.834,538.762,0.0
52551.0,STARLINK-3969,PAYLOAD,2023-12-10 21:16:06,15.08822503,0.0001559,53.2145,209.3612,93.1938,266.9233,-9.4694e-05,-1.794e-05,0.0,0 STARLINK-3969,1 52551U 22051U   23344.88618534 -.00001794  00000-0 -94694-4 0  9996,2 52551  53.2145 209.3612 0001559  93.1938 266.9233 15.08822503 87680,6917.934,95.439,540.877,538.72,0.0
52551.0,STARLINK-3969,PAYLOAD,2023-12-10 22:51:28,15.08912185,0.0001338,53.2165,209.0671,70.1813,289.9323,-0.0011579,-0.00018705,0.0,0 STARLINK-3969,1 52551U 22051U   23344.95241866 -.00018705  00000-0 -11579-2 0  9993,2 52551  53.2165 209.0671 0001338  70.1813 289.9323 15.08912185 87766,6917.66,95.433,540.45,538.599,0.0
52551.0,STARLINK-3969,PAYLOAD,2023-12-11 19:31:29,15.08827714,0.0001508,53.2162,205.1997,89.3613,270.7552,0.00016168,2.285e-05,0.0,0 STARLINK-3969,1 52551U 22051U   23345.81353821  .00002285  00000-0  16168-3 0  9998,2 52551  53.2162 205.1997 0001508  89.3613 270.7552 15.08827714 87899,6917.918,95.438,540.826,538.74,0.0
52551.0,STARLINK-3969,PAYLOAD,2023-12-11 21:06:52,15.08829645,0.0001578,53.2159,204.9035,85.4212,274.696,0.0001707,2.429e-05,0.0,0 STARLINK-3969,1 52551U 22051U   23345.87977747  .00002429  00000-0  17070-3 0  9996,2 52551  53.2159 204.9035 0001578  85.4212 274.6960 15.08829645 87839,6917.912,95.438,540.869,538.685,0.0
52551.0,STARLINK-3969,PAYLOAD,2023-12-12 19:22:16,15.08843543,0.0001451,53.2154,200.7455,92.234,267.8819,0.00016322,2.311e-05,0.0,0 STARLINK-3969,1 52551U 22051U   23346.80713279  .00002311  00000-0  16322-3 0  9997,2 52551  53.2154 200.7455 0001451  92.2340 267.8819 15.08843543 88046,6917.87,95.437,540.738,538.731,0.0
52551.0,STARLINK-3969,PAYLOAD,2023-12-12 20:57:39,15.08845952,0.0001527,53.2156,200.444,87.1122,273.0045,0.00018482,2.655e-05,0.0,0 STARLINK-3969,1 52551U 22051U   23346.87337097  .00002655  00000-0  18482-3 0  9994,2 52551  53.2156 200.4440 0001527  87.1122 273.0045 15.08845952 87982,6917.862,95.437,540.784,538.671,0.0
52551.0,STARLINK-3969,PAYLOAD,2023-12-13 20:48:25,15.08855893,0.0001593,53.2162,195.9797,89.7357,270.3817,8.4244e-05,1.054e-05,0.0,0 STARLINK-3969,1 52551U 22051U   23347.86696144  .00001054  00000-0  84244-4 0  9997,2 52551  53.2162 195.9797 0001593  89.7357 270.3817 15.08855893 88133,6917.832,95.437,540.799,538.595,0.0
52551.0,STARLINK-3969,PAYLOAD,2023-12-14 20:39:13,15.08844593,0.0001671,53.2164,191.5194,83.429,276.6892,-7.09e-05,-1.416e-05,0.0,0 STARLINK-3969,1 52551U 22051U   23348.86056847 -.00001416  00000-0 -70900-4 0  9996,2 52551  53.2164 191.5194 0001671  83.4290 276.6892 15.08844593 88353,6917.866,95.437,540.887,538.575,0.0
52551.0,STARLINK-3969,PAYLOAD,2023-12-15 18:54:37,15.08842616,0.0001549,53.216,187.3556,100.1574,259.9593,-0.00017069,-3.004e-05,0.0,0 STARLINK-3969,1 52551U 22051U   23349.78793183 -.00003004  00000-0 -17069-3 0  9990,2 52551  53.2160 187.3556 0001549 100.1574 259.9593 15.08842616 88424,6917.872,95.437,540.809,538.666,0.0
52551.0,STARLINK-3969,PAYLOAD,2023-12-16 12:23:51,15.08832517,0.0001574,53.2157,184.0845,101.5499,258.567,3.6488e-05,2.93e-06,0.0,0 STARLINK-3969,1 52551U 22051U   23350.51657293  .00000293  00000-0  36488-4 0  9996,2 52551  53.2157 184.0845 0001574 101.5499 258.5670 15.08832517 88536,6917.903,95.438,540.857,538.679,0.0
52551.0,STARLINK-3969,PAYLOAD,2023-12-16 20:20:47,15.08835405,0.0001545,53.2156,182.5984,96.0143,264.1025,5.82e-05,6.38e-06,0.0,0 STARLINK-3969,1 52551U 22051U   23350.84777236  .00000638  00000-0  58200-4 0  9991,2 52551  53.2156 182.5984 0001545  96.0143 264.1025 15.08835405 88653,6917.894,95.438,540.828,538.691,0.0
52551.0,STARLINK-3969,PAYLOAD,2023-12-17 18:36:11,15.08840342,0.0001498,53.2156,178.4358,91.2791,268.8372,0.00012021,1.626e-05,0.0,0 STARLINK-3969,1 52551U 22051U   23351.77513016  .00001626  00000-0  12021-3 0  9996,2 52551  53.2156 178.4358 0001498  91.2791 268.8372 15.08840342 88725,6917.879,95.438,540.781,538.708,0.0
